ONEWEB-0428             
1 51629U 22012H   26019.11422770  .00000703  00000+0  19776-2 0  9993
2 51629  87.8768  65.9926 0001773  96.8944 263.2385 13.10373667189761
ONEWEB-0431             
1 51630U 22012J   26019.16054365 -.00000432  00000+0 -12744-2 0  9990
2 51630  87.8781  65.9656 0001315 115.6574 244.4689 13.10375905189821
ONEWEB-0434             
1 51631U 22012K   26019.13759353 -.00000213  00000+0 -64592-3 0  9993
2 51631  87.8762  66.0030 0002438  93.1344 267.0062 13.10370601189803
ONEWEB-0435             
1 51632U 22012L   26019.14574680 -.00000547  00000+0 -16039-2 0  9995
2 51632  87.8763  65.9915 0001490  88.7443 271.3855 13.10372012189796
ONEWEB-0436             
1 51633U 22012M   26019.30138587  .00000018  00000+0  13189-4 0  9992
2 51633  87.9091  35.4258 0001577  89.6409 270.4903 13.17650805194079
ONEWEB-0438             
1 51634U 22012N   26019.12916241  .00000249  00000+0  67682-3 0  9996
2 51634  87.8760  65.9958 0002010  98.5925 261.5430 13.10370731189825
ONEWEB-0439             
1 51635U 22012P   26019.13247874  .00000055  00000+0  12097-3 0  9992
2 51635  87.8762  65.9839 0001798  96.0081 264.1251 13.10370094189804
ONEWEB-0442             
1 51636U 22012Q   26019.29378472 -.00000605  00000+0 -15915-2 0  9993
2 51636  87.9085  35.4712 0002422  96.3421 263.7986 13.17649811194069
ONEWEB-0443             
1 51637U 22012R   26019.08539749 -.00000009  00000+0 -55153-4 0  9995
2 51637  87.9077  35.5165 0002028  84.7237 275.4126 13.17649431194088
ONEWEB-0444             
1 51638U 22012S   26019.12252602  .00000536  00000+0  14978-2 0  9992
2 51638  87.8764  65.9845 0001797  97.1190 263.0141 13.10371750189815
ONEWEB-0445             
1 51639U 22012T   26019.14410333  .00000573  00000+0  16044-2 0  9999
2 51639  87.8787  65.9537 0001726 106.3656 253.7661 13.10367765189826
ONEWEB-0446             
1 51640U 22012U   26019.12086513  .00000576  00000+0  16142-2 0  9990
2 51640  87.8762  66.0012 0001835 103.5396 256.5936 13.10371729189801
ONEWEB-0448             
1 51641U 22012V   26019.12584141  .00000421  00000+0  11685-2 0  9997
2 51641  87.8761  65.9991 0001776  97.9624 262.1705 13.10370917189770
ONEWEB-0449             
1 51642U 22012W   26019.13082141  .00000169  00000+0  44918-3 0  9997
2 51642  87.8765  65.9724 0002273  94.8696 265.2691 13.10370147189781
ONEWEB-0451             
1 51643U 22012X   26019.29801990 -.00000001  00000+0 -36362-4 0  9998
2 51643  87.9092  35.4216 0001900  90.2058 269.9292 13.17650056194053
ONEWEB-0452             
1 51644U 22012Y   26019.29633826 -.00000035  00000+0 -12348-3 0  9994
2 51644  87.9084  35.4733 0001984  84.4524 275.6833 13.17648758194066
ONEWEB-0456             
1 51646U 22012AA  26019.14076726 -.00000387  00000+0 -11461-2 0  9994
2 51646  87.8779  65.9444 0001621  96.2012 263.9300 13.10370818189825
