[{"OBJECT_NAME":"ONEWEB-0428","OBJECT_ID":"2022-012H","EPOCH":"2026-01-19T02:44:29.273280","MEAN_MOTION":13.10373667,"ECCENTRICITY":0.00017733,"INCLINATION":87.8768,"RA_OF_ASC_NODE":65.9926,"ARG_OF_PERICENTER":96.8944,"MEAN_ANOMALY":263.2385,"EPHEMERIS_TYPE":0,"CLASSIFICATION_TYPE":"U","NORAD_CAT_ID":51629,"ELEMENT_SET_NO":999,"REV_AT_EPOCH":18976,"BSTAR":0.0019776368,"MEAN_MOTION_DOT":7.03e-6,"MEAN_MOTION_DDOT":0},{"OBJECT_NAME":"ONEWEB-0431","OBJECT_ID":"2022-012J","EPOCH":"2026-01-19T03:51:10.971360","MEAN_MOTION":13.10375905,"ECCENTRICITY":0.00013159,"INCLINATION":87.8781,"RA_OF_ASC_NODE":65.9656,"ARG_OF_PERICENTER":115.6574,"MEAN_ANOMALY":244.4689,"EPHEMERIS_TYPE":0,"CLASSIFICATION_TYPE":"U","NORAD_CAT_ID":51630,"ELEMENT_SET_NO":999,"REV_AT_EPOCH":18982,"BSTAR":-0.0012744018,"MEAN_MOTION_DOT":-4.32e-6,"MEAN_MOTION_DDOT":0},{"OBJECT_NAME":"ONEWEB-0434","OBJECT_ID":"2022-012K","EPOCH":"2026-01-19T03:18:08.080992","MEAN_MOTION":13.10370601,"ECCENTRICITY":0.00024387,"INCLINATION":87.8762,"RA_OF_ASC_NODE":66.003,"ARG_OF_PERICENTER":93.1344,"MEAN_ANOMALY":267.0062,"EPHEMERIS_TYPE":0,"CLASSIFICATION_TYPE":"U","NORAD_CAT_ID":51631,"ELEMENT_SET_NO":999,"REV_AT_EPOCH":18980,"BSTAR":-0.00064591518,"MEAN_MOTION_DOT":-2.13e-6,"MEAN_MOTION_DDOT":0},{"OBJECT_NAME":"ONEWEB-0435","OBJECT_ID":"2022-012L","EPOCH":"2026-01-19T03:29:52.523520","MEAN_MOTION":13.10372012,"ECCENTRICITY":0.00014908,"INCLINATION":87.8763,"RA_OF_ASC_NODE":65.9915,"ARG_OF_PERICENTER":88.7443,"MEAN_ANOMALY":271.3855,"EPHEMERIS_TYPE":0,"CLASSIFICATION_TYPE":"U","NORAD_CAT_ID":51632,"ELEMENT_SET_NO":999,"REV_AT_EPOCH":18979,"BSTAR":-0.0016039469,"MEAN_MOTION_DOT":-5.47e-6,"MEAN_MOTION_DDOT":0},{"OBJECT_NAME":"ONEWEB-0436","OBJECT_ID":"2022-012M","EPOCH":"2026-01-19T07:13:59.739168","MEAN_MOTION":13.17650805,"ECCENTRICITY":0.0001577,"INCLINATION":87.9091,"RA_OF_ASC_NODE":35.4258,"ARG_OF_PERICENTER":89.6409,"MEAN_ANOMALY":270.4903,"EPHEMERIS_TYPE":0,"CLASSIFICATION_TYPE":"U","NORAD_CAT_ID":51633,"ELEMENT_SET_NO":999,"REV_AT_EPOCH":19407,"BSTAR":1.318922e-5,"MEAN_MOTION_DOT":1.8e-7,"MEAN_MOTION_DDOT":0},{"OBJECT_NAME":"ONEWEB-0438","OBJECT_ID":"2022-012N","EPOCH":"2026-01-19T03:05:59.632224","MEAN_MOTION":13.10370731,"ECCENTRICITY":0.00020105,"INCLINATION":87.876,"RA_OF_ASC_NODE":65.9958,"ARG_OF_PERICENTER":98.5925,"MEAN_ANOMALY":261.543,"EPHEMERIS_TYPE":0,"CLASSIFICATION_TYPE":"U","NORAD_CAT_ID":51634,"ELEMENT_SET_NO":999,"REV_AT_EPOCH":18982,"BSTAR":0.00067682334,"MEAN_MOTION_DOT":2.49e-6,"MEAN_MOTION_DDOT":0},{"OBJECT_NAME":"ONEWEB-0439","OBJECT_ID":"2022-012P","EPOCH":"2026-01-19T03:10:46.163136","MEAN_MOTION":13.10370094,"ECCENTRICITY":0.00017982,"INCLINATION":87.8762,"RA_OF_ASC_NODE":65.9839,"ARG_OF_PERICENTER":96.0081,"MEAN_ANOMALY":264.1251,"EPHEMERIS_TYPE":0,"CLASSIFICATION_TYPE":"U","NORAD_CAT_ID":51635,"ELEMENT_SET_NO":999,"REV_AT_EPOCH":18980,"BSTAR":0.00012097081,"MEAN_MOTION_DOT":5.5e-7,"MEAN_MOTION_DDOT":0},{"OBJECT_NAME":"ONEWEB-0442","OBJECT_ID":"2022-012Q","EPOCH":"2026-01-19T07:03:02.999808","MEAN_MOTION":13.17649811,"ECCENTRICITY":0.00024222,"INCLINATION":87.9085,"RA_OF_ASC_NODE":35.4712,"ARG_OF_PERICENTER":96.3421,"MEAN_ANOMALY":263.7986,"EPHEMERIS_TYPE":0,"CLASSIFICATION_TYPE":"U","NORAD_CAT_ID":51636,"ELEMENT_SET_NO":999,"REV_AT_EPOCH":19406,"BSTAR":-0.0015914647,"MEAN_MOTION_DOT":-6.05e-6,"MEAN_MOTION_DDOT":0},{"OBJECT_NAME":"ONEWEB-0443","OBJECT_ID":"2022-012R","EPOCH":"2026-01-19T02:02:58.343136","MEAN_MOTION":13.17649431,"ECCENTRICITY":0.00020281,"INCLINATION":87.9077,"RA_OF_ASC_NODE":35.5165,"ARG_OF_PERICENTER":84.7237,"MEAN_ANOMALY":275.4126,"EPHEMERIS_TYPE":0,"CLASSIFICATION_TYPE":"U","NORAD_CAT_ID":51637,"ELEMENT_SET_NO":999,"REV_AT_EPOCH":19408,"BSTAR":-5.5152519e-5,"MEAN_MOTION_DOT":-9.0e-8,"MEAN_MOTION_DDOT":0},{"OBJECT_NAME":"ONEWEB-0444","OBJECT_ID":"2022-012S","EPOCH":"2026-01-19T02:56:26.248128","MEAN_MOTION":13.1037175,"ECCENTRICITY":0.00017979,"INCLINATION":87.8764,"RA_OF_ASC_NODE":65.9845,"ARG_OF_PERICENTER":97.119,"MEAN_ANOMALY":263.0141,"EPHEMERIS_TYPE":0,"CLASSIFICATION_TYPE":"U","NORAD_CAT_ID":51638,"ELEMENT_SET_NO":999,"REV_AT_EPOCH":18981,"BSTAR":0.0014977985,"MEAN_MOTION_DOT":5.36e-6,"MEAN_MOTION_DDOT":0},{"OBJECT_NAME":"ONEWEB-0445","OBJECT_ID":"2022-012T","EPOCH":"2026-01-19T03:27:30.527712","MEAN_MOTION":13.10367765,"ECCENTRICITY":0.00017263,"INCLINATION":87.8787,"RA_OF_ASC_NODE":65.9537,"ARG_OF_PERICENTER":106.3656,"MEAN_ANOMALY":253.7661,"EPHEMERIS_TYPE":0,"CLASSIFICATION_TYPE":"U","NORAD_CAT_ID":51639,"ELEMENT_SET_NO":999,"REV_AT_EPOCH":18982,"BSTAR":0.001604397,"MEAN_MOTION_DOT":5.73e-6,"MEAN_MOTION_DDOT":0},{"OBJECT_NAME":"ONEWEB-0446","OBJECT_ID":"2022-012U","EPOCH":"2026-01-19T02:54:02.747232","MEAN_MOTION":13.10371729,"ECCENTRICITY":0.00018355,"INCLINATION":87.8762,"RA_OF_ASC_NODE":66.0012,"ARG_OF_PERICENTER":103.5396,"MEAN_ANOMALY":256.5936,"EPHEMERIS_TYPE":0,"CLASSIFICATION_TYPE":"U","NORAD_CAT_ID":51640,"ELEMENT_SET_NO":999,"REV_AT_EPOCH":18980,"BSTAR":0.0016142161,"MEAN_MOTION_DOT":5.76e-6,"MEAN_MOTION_DDOT":0},{"OBJECT_NAME":"ONEWEB-0448","OBJECT_ID":"2022-012V","EPOCH":"2026-01-19T03:01:12.697824","MEAN_MOTION":13.10370917,"ECCENTRICITY":0.00017761,"INCLINATION":87.8761,"RA_OF_ASC_NODE":65.9991,"ARG_OF_PERICENTER":97.9624,"MEAN_ANOMALY":262.1705,"EPHEMERIS_TYPE":0,"CLASSIFICATION_TYPE":"U","NORAD_CAT_ID":51641,"ELEMENT_SET_NO":999,"REV_AT_EPOCH":18977,"BSTAR":0.0011685449,"MEAN_MOTION_DOT":4.21e-6,"MEAN_MOTION_DDOT":0},{"OBJECT_NAME":"ONEWEB-0449","OBJECT_ID":"2022-012W","EPOCH":"2026-01-19T03:08:22.969824","MEAN_MOTION":13.10370147,"ECCENTRICITY":0.00022735,"INCLINATION":87.8765,"RA_OF_ASC_NODE":65.9724,"ARG_OF_PERICENTER":94.8696,"MEAN_ANOMALY":265.2691,"EPHEMERIS_TYPE":0,"CLASSIFICATION_TYPE":"U","NORAD_CAT_ID":51642,"ELEMENT_SET_NO":999,"REV_AT_EPOCH":18978,"BSTAR":0.00044918134,"MEAN_MOTION_DOT":1.69e-6,"MEAN_MOTION_DDOT":0},{"OBJECT_NAME":"ONEWEB-0451","OBJECT_ID":"2022-012X","EPOCH":"2026-01-19T07:09:08.919360","MEAN_MOTION":13.17650056,"ECCENTRICITY":0.00019002,"INCLINATION":87.9092,"RA_OF_ASC_NODE":35.4216,"ARG_OF_PERICENTER":90.2058,"MEAN_ANOMALY":269.9292,"EPHEMERIS_TYPE":0,"CLASSIFICATION_TYPE":"U","NORAD_CAT_ID":51643,"ELEMENT_SET_NO":999,"REV_AT_EPOCH":19405,"BSTAR":-3.6361543e-5,"MEAN_MOTION_DOT":-1.0e-8,"MEAN_MOTION_DDOT":0},{"OBJECT_NAME":"ONEWEB-0452","OBJECT_ID":"2022-012Y","EPOCH":"2026-01-19T07:06:43.625664","MEAN_MOTION":13.17648758,"ECCENTRICITY":0.0001984,"INCLINATION":87.9084,"RA_OF_ASC_NODE":35.4733,"ARG_OF_PERICENTER":84.4524,"MEAN_ANOMALY":275.6833,"EPHEMERIS_TYPE":0,"CLASSIFICATION_TYPE":"U","NORAD_CAT_ID":51644,"ELEMENT_SET_NO":999,"REV_AT_EPOCH":19406,"BSTAR":-0.00012347827,"MEAN_MOTION_DOT":-3.5e-7,"MEAN_MOTION_DDOT":0},{"OBJECT_NAME":"ONEWEB-0456","OBJECT_ID":"2022-012AA","EPOCH":"2026-01-19T03:22:42.291264","MEAN_MOTION":13.10370818,"ECCENTRICITY":0.00016216,"INCLINATION":87.8779,"RA_OF_ASC_NODE":65.9444,"ARG_OF_PERICENTER":96.2012,"MEAN_ANOMALY":263.93,"EPHEMERIS_TYPE":0,"CLASSIFICATION_TYPE":"U","NORAD_CAT_ID":51646,"ELEMENT_SET_NO":999,"REV_AT_EPOCH":18982,"BSTAR":-0.0011460645,"MEAN_MOTION_DOT":-3.87e-6,"MEAN_MOTION_DDOT":0}]
